#dP2021  5  4  0  0  0.00000000      96 __u+U ITR00 EXT  IAC
## 2156 172800.00000000   900.00000000 59338 0.0000000000000
+  116   C06C07C08C09C10C11C12C13C14C16C19C20C21C22C23C24C25
+        C26C27C28C29C30C32C33C34C35C36C37C38C39C40C41C42C43
+        C44C45C46E01E02E03E04E05E07E08E09E11E12E13E14E15E18
+        E19E21E24E25E26E27E30E31E33E36G01G02G03G04G05G06G07
+        G08G09G10G12G13G14G15G16G17G18G19G20G21G22G23G24G25
+        G26G27G28G29G30G31G32J01J02J03R01R02R03R04R05R07R08
+        R09R11R12R13R14R15R16R17R18R19R20R21R22R24  0  0  0
++        10  8 10  9  9  9  9 10  8  9 10  9  9  8  8  9  8
++        10  9  8  9  9 10  9  9  8  8  8 10  9 11  8  9  8
++        10 10 10  9  9  9  9  8  9  9  8  8  8  8  8  8  8
++         9  8  9  8  8  9 10  8  8  9  8  8  8  8  9  8  8
++         8  9  8  9  8  8  8  8  8  8  8  8  8  8  8  9  9
++         8  8  8  8  8  7  8  9 10 10  9  8  8  9  9  9  9
++        10  8  8 10  9 10  9  9  9  7  8  8 10  9  0  0  0
%c M  cc GPS ccc cccc cccc cccc cccc ccccc ccccc ccccc ccccc
%c cc cc ccc ccc cccc cccc cccc cccc ccccc ccccc ccccc ccccc
%f  0.0000000  0.000000000  0.00000000000  0.000000000000000
%f  0.0000000  0.000000000  0.00000000000  0.000000000000000
%i    0    0    0    0      0      0      0      0         0
%i    0    0    0    0      0      0      0      0         0
/* IAC                                ULTRA-RAPID PREDICTION
/* S/V CLOCKS ARE ALIGNED TO GNSS TIME                      
/* G:C1WC2W R:C1PC2P E:C1XC5X C:C2IC6I J:C1CC2S             
/* PCV:IGS14_2148 OL/AL:FES2004  NONE     YN ORB:CoN CLK:CoN
*  2021 05 04 23  0  0.00000000
PC06 -24322.772563  28585.816812  19180.264983    348.705250
PC07 -12457.790607  36429.493520  18032.034191   -188.561791
PC08 -10315.957436  18523.027253 -36338.367705   -890.344031
PC09 -10193.519924  28326.711044  29645.049027    547.622406
PC10  -1425.112883  42085.373771   5263.416574    -47.215275
PC11  -4928.507726  16990.640563 -21534.621299    322.183651
PC12 -21656.214754  15027.029480  -9154.920837    897.938218
PC13   3521.422929  25923.593839 -32897.919124    247.943631
PC14  -1986.612770  27770.919096   2355.636040    643.110464
PC16 -21697.384804  28984.783951  21544.586000   -819.313352
PC19  -4639.281103 -25055.851664 -11320.206339    822.819820
PC20   7309.593889 -26342.198904   5539.159570   -931.625189
PC21 -15488.570545  11938.930021 -19893.078821   -943.812710
PC22 -14272.085152  -9153.343328 -22149.226880   -959.642327
PC23  23723.574840  13644.225331  -5456.843377   -900.002033
PC24  -4994.490139  16206.732455  22149.643211   -837.928242
PC25  14499.387281  20921.499705  11409.561661   -922.140012
PC26 -19510.523732   3009.524344  19728.339351    911.661403
PC27  25982.143031 -10213.873239     79.316730    526.309429
PC28  22481.478169   3227.037074 -16214.490250    -78.342932
PC29  -6382.472980 -14533.605200  22941.487025    387.836988
PC30  14044.996075 -18124.703461  15915.180045    465.337294
PC32  15435.182700 -11993.974117  19932.401836   -937.924566
PC33   4771.661922  25085.445378  11293.584574   -940.562412
PC34 -13331.919065  18189.742671 -16430.352179   -680.874865
PC35 -22378.073571  -2752.571346  16411.015357   -296.093628
PC36 -13738.026241 -21281.210699 -11685.878446   -727.900132
PC37  20058.446468  -1800.017994 -19295.030483   -900.337061
PC38  -6232.768794  23273.715874 -34577.898952    146.585188
PC39 -17386.323840  30432.622116  23331.278504     30.833041
PC40  -7097.238854  40795.072606   8325.039156    157.722438
PC41  14271.850177   9464.226781  22087.762570   -945.285164
PC42  -7675.857035  26120.225170  -6124.225110   -917.693959
PC43   5845.279756  14895.652542 -22871.796199   -715.508714
PC44 -25634.653015  10977.018784     75.132683    171.374835
PC45 -23761.322223 -13548.049569   5583.174358    431.465917
PC46   3873.700194 -16718.784910 -22006.437371    285.888336
PE01  -8955.186949 -27724.278618  -5246.274224  -1100.928991
PE02   9040.203547  27707.141536   5122.324111    216.812874
PE03   -719.217505  23417.946121  18104.291117   -427.380194
PE04 -14884.863106  -8517.351165 -24114.478614   -764.056446
PE05 -16136.286922  24780.334692   1364.784032   -283.559454
PE07  21992.489917 -11668.333098  16015.181203   -533.744775
PE08  15011.328528   8064.069853  24210.601863   6007.285385
PE09 -21860.591578  12023.386191 -15931.289915   5678.748942
PE11 -28451.401236   2773.219783  -7646.343267   6019.453969
PE12 -25359.816137  -9702.253299  11755.628812   5226.831799
PE13  28594.286688  -2560.127130   7239.070401    415.947205
PE14 -22679.202642   7282.302408  11087.858031  -1419.804525
PE15  25439.666364   9556.688328 -11742.607392    816.004130
PE18  22078.947860   4049.189233 -20785.902624  -1553.799141
PE19   2774.666488 -24305.552127 -16654.862624    268.778881
PE21   5317.752240 -20905.715996 -20274.577796   -663.067970
PE24 -17444.348182    784.359232  23889.202371   -882.636080
PE25  -5466.785864  20757.278410  20382.218665   -532.859108
PE26  14171.304634 -13527.003324  22192.212423   1848.238605
PE27  17104.862032  -1744.588856 -24093.283314    -25.401932
PE30  18489.997244  19130.061096 -12970.922143   2971.679266
PE31 -18766.821240 -18319.970374  13730.838917   -480.829571
PE33  -7295.840231 -16031.983585  23788.896751   -468.244601
PE36 -14891.941846  13154.922330 -21933.229222   -202.676595
PG01  19510.909990  14083.889555 -11881.957573    698.305658
PG02   4138.266605 -14928.961230  22231.446690   -601.472340
PG03  12707.424943  20741.603924  10715.273817   -155.088565
PG04  10552.056849  10990.702630  21765.622969   -194.917192
PG05  -4374.129716 -25753.599880   4080.410624    -40.994292
PG06  16687.124317  -8312.379728  19002.458374     12.724438
PG07  25844.543809   7132.550326   -761.672071    141.626720
PG08   2311.916134  17182.884092 -20039.036996    -19.981332
PG09  18642.577876    358.310871  18867.139493   -343.430130
PG10 -13269.253294   7813.831462 -21493.206802   -115.417998
PG12  -9875.196665 -23125.979722   8523.116359    -36.697571
PG13   7687.233861 -19570.330338 -16279.598009    128.012800
PG14  14017.022159  -6975.638545 -21463.493504     89.838872
PG15  -5097.098663 -17173.065098 -19869.037380   -151.636148
PG16  -1289.642572  25129.484068   7484.628480   -320.054788
PG17  22078.052914 -12930.709827  -6698.905523    437.158701
PG18 -25735.717144  -4386.175182  -5079.576530    351.040356
PG19  20477.611023 -16766.719563   1019.006518     -4.243504
PG20 -14637.829783 -20963.092603  -7678.746166    522.512290
PG21  13762.571258  14906.059707 -16676.641755    115.828034
PG22   9838.909351  24754.123595   1346.970684   -622.253961
PG23 -16123.808525  -4584.441731 -20632.489091    109.223592
PG24 -15621.942931 -15191.203693 -15694.499079     56.847558
PG25 -15619.204783 -12413.632851  17400.401079    131.119396
PG26  -5968.337680  20350.539118  15769.644013     81.044580
PG27  -8772.804181  21064.027573 -13447.551843   -124.440977
PG28  11891.740044 -12163.069154 -19914.797279    576.468873
PG29 -18291.132786  -1380.958547  19176.551901   -341.485148
PG30  22987.864961  -2841.380436 -13147.089023   -421.782475
PG31 -14634.541220  10033.102699  19819.002014   -115.427041
PG32 -20963.916510  15223.220455  -5309.304261     21.691589
PJ01 -24241.504932  31156.888006 -10224.587018   -374.225515
PJ02 -24199.698500  23843.766079  29811.239952      7.203859
PJ03 -35545.256027  20221.867733  -5570.676898     -4.730433
PR01   1983.717232  19789.443950  15990.391265     78.919421
PR02  11350.230219    195.972032  22894.282642    477.333872
PR03  12741.602843 -17002.997014  14201.045978     35.347725
PR04   6970.769010 -24424.784952  -2341.729414     85.322099
PR05  -2577.299732 -18273.744166 -17603.094203     71.131650
PR07 -12603.126102  17482.933999 -13567.977635    -42.512255
PR08  -6829.649279  24440.311607   2554.889498    -58.866881
PR09 -18745.588242 -10451.970321  13743.544193     -8.774286
PR11   3377.959696  16805.303989  18903.644114     -2.228847
PR12  15624.950289  19847.204110   3501.686240    226.243214
PR13  18775.687021  11060.515809 -13278.023299    -54.294411
PR14  10599.499249  -4615.948617 -22729.954147     63.887172
PR15  -3453.962561 -17142.696374 -18553.391906    103.984572
PR16 -16573.031589 -19327.781589  -2466.275986    -14.681412
PR17  22759.081910  -8295.231506   7946.149954    421.307528
PR18   9705.218014 -11375.391350  20693.483576     75.373020
PR19  -7560.346866  -8911.573858  22669.088824   -142.412294
PR20 -23345.649250   -626.344000  10205.552945    -48.523904
PR21 -22236.421164   8599.339917  -9101.483195   -206.557454
PR22  -8510.152024  11272.536401 -21231.187952   -111.129587
PR24  23697.338925     86.733046  -9417.458614     41.376303
EOF
